NORAD_CAT_ID,OBJECT_NAME,OBJECT_TYPE,EPOCH,MEAN_MOTION,ECCENTRICITY,INCLINATION,RA_OF_ASC_NODE,ARG_OF_PERICENTER,MEAN_ANOMALY,BSTAR,MEAN_MOTION_DOT,MEAN_MOTION_DDOT,TLE_LINE0,TLE_LINE1,TLE_LINE2,SEMIMAJOR_AXIS,PERIOD,APOGEE,PERIGEE,DECAYED
52484.0,STARLINK-3887,PAYLOAD,2024-07-14 20:09:24,15.0884144,0.0001442,53.2164,245.4233,85.8898,274.2259,8.2711e-05,1.029e-05,0.0,0 STARLINK-3887,1 52484U 22049AK  24196.83987209  .00001029  00000-0  82711-4 0  9993,2 52484  53.2164 245.4233 0001442  85.8898 274.2259 15.08841440121242,6917.876,95.437,540.739,538.743,0.0
52484.0,STARLINK-3887,PAYLOAD,2024-07-15 12:03:16,15.08840714,0.0001472,53.2167,242.451,98.6534,261.4625,3.3274e-05,2.42e-06,0.0,0 STARLINK-3887,1 52484U 22049AK  24197.50227518  .00000242  00000-0  33274-4 0  9994,2 52484  53.2167 242.4510 0001472  98.6534 261.4625 15.08840714121509,6917.878,95.438,540.762,538.725,0.0
52484.0,STARLINK-3887,PAYLOAD,2024-07-15 20:00:12,15.08835947,0.0001538,53.2165,240.9638,94.0806,266.0362,4.3438e-05,4.03e-06,0.0,0 STARLINK-3887,1 52484U 22049AK  24197.83347827  .00000403  00000-0  43438-4 0  9998,2 52484  53.2165 240.9638 0001538  94.0806 266.0362 15.08835947121394,6917.893,95.438,540.822,538.694,0.0
52484.0,STARLINK-3887,PAYLOAD,2024-07-16 10:18:40,15.08842593,0.0001474,53.2162,238.2858,89.0604,271.0557,7.9494e-05,9.77e-06,0.0,0 STARLINK-3887,1 52484U 22049AK  24198.42963430  .00000977  00000-0  79494-4 0  9995,2 52484  53.2162 238.2858 0001474  89.0604 271.0557 15.08842593121481,6917.872,95.437,540.757,538.718,0.0
52484.0,STARLINK-3887,PAYLOAD,2024-07-17 02:12:32,15.08832038,0.0001416,53.2152,235.3117,86.5438,273.5716,6.6954e-05,7.78e-06,0.0,0 STARLINK-3887,1 52484U 22049AK  24199.09204239  .00000778  00000-0  66954-4 0  9990,2 52484  53.2152 235.3117 0001416  86.5438 273.5716 15.08832038121745,6917.905,95.438,540.749,538.79,0.0
52484.0,STARLINK-3887,PAYLOAD,2024-07-17 10:09:28,15.08833853,0.0001504,53.2154,233.8233,84.124,275.9924,1.0135e-05,-1.27e-06,0.0,0 STARLINK-3887,1 52484U 22049AK  24199.42324503 -.00000127  00000-0  10135-4 0  9993,2 52484  53.2154 233.8233 0001504  84.1240 275.9924 15.08833853121633,6917.899,95.438,540.805,538.724,0.0
52484.0,STARLINK-3887,PAYLOAD,2024-07-18 11:35:37,15.08858045,0.0001512,53.2158,229.0646,85.7072,274.4093,2.0595e-05,4e-07,0.0,0 STARLINK-3887,1 52484U 22049AK  24200.48307138  .00000040  00000-0  20595-4 0  9991,2 52484  53.2158 229.0646 0001512  85.7072 274.4093 15.08858045121957,6917.825,95.436,540.736,538.644,0.0
52484.0,STARLINK-3887,PAYLOAD,2024-07-19 05:04:52,15.08840815,0.0001405,53.215,225.7916,85.9273,274.1879,8.8339e-05,1.118e-05,0.0,0 STARLINK-3887,1 52484U 22049AK  24201.21172132  .00001118  00000-0  88339-4 0  9994,2 52484  53.2150 225.7916 0001405  85.9273 274.1879 15.08840815122066,6917.878,95.438,540.715,538.771,0.0
52484.0,STARLINK-3887,PAYLOAD,2024-07-19 11:26:25,15.08840053,0.0001575,53.2166,224.6031,92.4148,267.7025,6.891e-05,8.09e-06,0.0,0 STARLINK-3887,1 52484U 22049AK  24201.47668100  .00000809  00000-0  68910-4 0  9996,2 52484  53.2166 224.6031 0001575  92.4148 267.7025 15.08840053121942,6917.88,95.438,540.835,538.656,0.0
52484.0,STARLINK-3887,PAYLOAD,2024-07-20 08:06:25,15.08844551,0.0001541,53.216,220.7383,89.2279,270.8889,1.9917e-05,2.9e-07,0.0,0 STARLINK-3887,1 52484U 22049AK  24202.33779799  .00000029  00000-0  19917-4 0  9996,2 52484  53.2160 220.7383 0001541  89.2279 270.8889 15.08844551122238,6917.866,95.437,540.798,538.665,0.0
52484.0,STARLINK-3887,PAYLOAD,2024-07-21 04:46:27,15.08834842,0.0001449,53.2153,216.8738,88.3128,271.803,8.8697e-06,-1.47e-06,0.0,0 STARLINK-3887,1 52484U 22049AK  24203.19892509 -.00000147  00000-0  88697-5 0  9990,2 52484  53.2153 216.8738 0001449  88.3128 271.8030 15.08834842122365,6917.896,95.438,540.764,538.759,0.0
52484.0,STARLINK-3887,PAYLOAD,2024-07-21 11:07:59,15.08836252,0.0001446,53.2155,215.6842,87.8428,272.2729,1.624e-05,-3e-07,0.0,0 STARLINK-3887,1 52484U 22049AK  24203.46388447 -.00000030  00000-0  16240-4 0  9996,2 52484  53.2155 215.6842 0001446  87.8428 272.2729 15.08836252122248,6917.892,95.438,540.757,538.757,0.0
52484.0,STARLINK-3887,PAYLOAD,2024-07-22 10:58:46,15.08842153,0.0001406,53.2156,211.2239,87.6652,272.4501,6.5708e-05,7.58e-06,0.0,0 STARLINK-3887,1 52484U 22049AK  24204.45748058  .00000758  00000-0  65708-4 0  9993,2 52484  53.2156 211.2239 0001406  87.6652 272.4501 15.08842153122555,6917.874,95.437,540.711,538.766,0.0
52484.0,STARLINK-3887,PAYLOAD,2024-07-23 07:38:47,15.08839059,0.000137,53.2159,207.3576,92.7938,267.3211,8.4022e-05,1.05e-05,0.0,0 STARLINK-3887,1 52484U 22049AK  24205.31860344  .00001050  00000-0  84022-4 0  9998,2 52484  53.2159 207.3576 0001370  92.7938 267.3211 15.08839059122521,6917.883,95.438,540.696,538.801,0.0
52484.0,STARLINK-3887,PAYLOAD,2024-07-24 09:04:57,15.0883886,0.0001471,53.2162,202.5992,84.6192,275.4968,2.3663e-05,8.9e-07,0.0,0 STARLINK-3887,1 52484U 22049AK  24206.37844768  .00000089  00000-0  23663-4 0  9992,2 52484  53.2162 202.5992 0001471  84.6192 275.4968 15.08838860122841,6917.884,95.438,540.766,538.731,0.0
52484.0,STARLINK-3887,PAYLOAD,2024-07-25 05:44:58,15.08837289,0.0001516,53.2162,198.7346,81.9317,278.1847,4.1418e-05,3.71e-06,0.0,0 STARLINK-3887,1 52484U 22049AK  24207.23956931  .00000371  00000-0  41418-4 0  9996,2 52484  53.2162 198.7346 0001516  81.9317 278.1847 15.08837289122816,6917.889,95.438,540.802,538.705,0.0
52484.0,STARLINK-3887,PAYLOAD,2024-07-25 08:55:45,15.08836866,0.0001518,53.2162,198.14,81.7282,278.3882,3.6848e-05,2.98e-06,0.0,0 STARLINK-3887,1 52484U 22049AK  24207.37205000  .00000298  00000-0  36848-4 0  9994,2 52484  53.2162 198.1400 0001518  81.7282 278.3882 15.08836866122835,6917.89,95.438,540.805,538.705,0.0
52484.0,STARLINK-3887,PAYLOAD,2024-07-26 05:35:45,15.08845843,0.0001499,53.216,194.2742,83.7013,276.415,0.00010328,1.356e-05,0.0,0 STARLINK-3887,1 52484U 22049AK  24208.23316172  .00001356  00000-0  10328-3 0  9993,2 52484  53.2160 194.2742 0001499  83.7013 276.4150 15.08845843123126,6917.863,95.437,540.765,538.691,0.0
52484.0,STARLINK-3887,PAYLOAD,2024-07-26 16:43:26,15.0884615,0.0001403,53.2154,192.1921,88.3326,271.7826,8.4965e-05,1.065e-05,0.0,0 STARLINK-3887,1 52484U 22049AK  24208.69683974  .00001065  00000-0  84965-4 0  9996,2 52484  53.2154 192.1921 0001403  88.3326 271.7826 15.08846150123038,6917.862,95.437,540.697,538.756,0.0
52484.0,STARLINK-3887,PAYLOAD,2024-07-27 05:26:32,15.08841706,0.0001451,53.2161,189.8126,93.6188,266.497,6.1708e-05,6.94e-06,0.0,0 STARLINK-3887,1 52484U 22049AK  24209.22676188  .00000694  00000-0  61708-4 0  9992,2 52484  53.2161 189.8126 0001451  93.6188 266.4970 15.08841706123273,6917.875,95.437,540.744,538.736,0.0
52484.0,STARLINK-3887,PAYLOAD,2024-07-28 03:41:56,15.08835301,0.000153,53.2167,185.648,97.917,262.1996,-7.9619e-05,-1.555e-05,0.0,0 STARLINK-3887,1 52484U 22049AK  24210.15413100 -.00001555  00000-0 -79619-4 0  9998,2 52484  53.2167 185.6480 0001530  97.9170 262.1996 15.08835301123413,6917.895,95.438,540.818,538.701,0.0
52484.0,STARLINK-3887,PAYLOAD,2024-07-28 22:46:34,15.08832473,0.0001361,53.216,182.0798,94.1227,265.9921,-3.1029e-05,-7.82e-06,0.0,0 STARLINK-3887,1 52484U 22049AK  24210.94901337 -.00000782  00000-0 -31029-4 0  9993,2 52484  53.2160 182.0798 0001361  94.1227 265.9921 15.08832473123374,6917.903,95.438,540.71,538.827,0.0
52484.0,STARLINK-3887,PAYLOAD,2024-07-29 05:08:07,15.08836216,0.0001301,53.216,180.8923,90.8325,269.2816,-9.0668e-07,-3.02e-06,0.0,0 STARLINK-3887,1 52484U 22049AK  24211.21397132 -.00000302  00000-0 -90668-6 0  9990,2 52484  53.2160 180.8923 0001301  90.8325 269.2816 15.08836216123577,6917.892,95.438,540.657,538.857,0.0
52484.0,STARLINK-3887,PAYLOAD,2024-07-29 14:40:26,15.08835039,0.0001362,53.2166,179.1084,91.5222,268.5927,4.3602e-05,4.06e-06,0.0,0 STARLINK-3887,1 52484U 22049AK  24211.61141230  .00000406  00000-0  43602-4 0  9997,2 52484  53.2166 179.1084 0001362  91.5222 268.5927 15.08835039123479,6917.896,95.438,540.703,538.818,0.0
52484.0,STARLINK-3887,PAYLOAD,2024-07-30 14:31:13,15.08837552,0.0001436,53.2172,174.6498,100.2232,259.8922,0.00011008,1.464e-05,0.0,0 STARLINK-3887,1 52484U 22049AK  24212.60501271  .00001464  00000-0  11008-3 0  9991,2 52484  53.2172 174.6498 0001436 100.2232 259.8922 15.08837552123623,6917.888,95.438,540.746,538.759,0.0
52484.0,STARLINK-3887,PAYLOAD,2024-07-30 20:52:45,15.08838912,0.0001455,53.2174,173.4605,100.1605,259.9552,7.8435e-05,9.61e-06,0.0,0 STARLINK-3887,1 52484U 22049AK  24212.86997376  .00000961  00000-0  78435-4 0  9993,2 52484  53.2174 173.4605 0001455 100.1605 259.9552 15.08838912123829,6917.884,95.438,540.755,538.742,0.0
52484.0,STARLINK-3887,PAYLOAD,2024-07-31 14:22:00,15.08841604,0.0001381,53.2169,170.1882,85.0097,275.1053,6.9826e-05,8.24e-06,0.0,0 STARLINK-3887,1 52484U 22049AK  24213.59861310  .00000824  00000-0  69826-4 0  9994,2 52484  53.2169 170.1882 0001381  85.0097 275.1053 15.08841604123770,6917.875,95.437,540.696,538.785,0.0
52484.0,STARLINK-3887,PAYLOAD,2024-07-31 20:43:33,15.08838599,0.0001517,53.2174,168.9998,85.8201,274.2964,3.9663e-05,3.43e-06,0.0,0 STARLINK-3887,1 52484U 22049AK  24213.86357666  .00000343  00000-0  39663-4 0  9990,2 52484  53.2174 168.9998 0001517  85.8201 274.2964 15.08838599123810,6917.885,95.438,540.799,538.7,0.0
52484.0,STARLINK-3887,PAYLOAD,2024-08-01 04:40:28,15.08840485,0.000155,53.2168,167.5117,82.0605,278.0563,5.5875e-06,-1.99e-06,0.0,0 STARLINK-3887,1 52484U 22049AK  24214.19477726 -.00000199  00000-0  55875-5 0  9991,2 52484  53.2168 167.5117 0001550  82.0605 278.0563 15.08840485124023,6917.879,95.438,540.816,538.672,0.0
52484.0,STARLINK-3887,PAYLOAD,2024-08-02 06:06:38,15.08845375,0.0001445,53.2167,162.7518,93.51,266.6057,3.196e-05,2.21e-06,0.0,0 STARLINK-3887,1 52484U 22049AK  24215.25461352  .00000221  00000-0  31960-4 0  9990,2 52484  53.2167 162.7518 0001445  93.5100 266.6057 15.08845375124185,6917.864,95.437,540.729,538.729,0.0
